GLOBALSTAR M040         
1 25622U 99004B   24206.77936689 -.00000087  00000+0  94101-4 0  9992
2 25622  51.9941 334.0506 0001259  75.4095  89.6018 12.61977484173918
GLOBALSTAR M036         
1 25623U 99004C   24206.88341994 -.00000026  00000+0  82200-3 0  9993
2 25623  51.9984  23.0036 0011637 139.1813   8.3838 11.86571760140124
GLOBALSTAR M038         
1 25624U 99004D   24206.73301616 -.00000042  00000+0  44121-3 0  9993
2 25624  51.9984 294.5876 0002328 101.8859  66.3395 12.32503629161996
GLOBALSTAR M022         
1 25649U 99012A   24206.91526628 -.00000081  00000+0  67159-4 0  9991
2 25649  52.0041 100.5659 0001786 244.9277 227.4592 12.02485326137008
GLOBALSTAR M046         
1 25651U 99012C   24206.91088240 -.00000053  00000+0  39166-3 0  9992
2 25651  52.0063  62.6586 0002088 341.4268 148.2707 12.09392136144066
GLOBALSTAR M037         
1 25652U 99012D   24206.96409944 -.00000036  00000+0  37515-3 0  9993
2 25652  52.0005 100.5579 0001550 161.7174 315.2411 12.62412692169940
